TJS-7                   
1 49115U 21077A   26196.60866071 -.00000133  00000+0  00000+0 0  9991
2 49115   0.2845 263.9752 0002988 107.0759  41.9915  1.00269203  9833
CHINASAT 9B             
1 49125U 21080A   26196.71968749 -.00000322  00000+0  00000+0 0  9993
2 49125   0.0578 249.0508 0002157 256.3904 148.5956  1.00268412 17937
SHIJIAN-21 (SJ-21)      
1 49330U 21094A   26196.76539369 -.00000360  00000+0  00000+0 0  9995
2 49330   5.1787  61.0048 0051634 168.9649 107.0876  1.00277668  5641
SES-17                  
1 49332U 21095A   26195.75967308 -.00000280  00000+0  00000+0 0  9995
2 49332   0.0240  48.7859 0000769  69.0430  21.1585  1.00268806 18130
SYRACUSE 4A             
1 49333U 21095B   26196.49479853  .00000000  00000+0  00000+0 0  9990
2 49333   0.0256  65.0342 0001570  39.4977  52.4480  1.00269336 18236
QZS-1R (MICHIBIKI-1R)   
1 49336U 21096A   26195.57629205 -.00000304  00000+0  00000+0 0  9998
2 49336  37.5157  79.1769 0754906 272.2285 280.2291  1.00245239 17281
ZHONGXING-1D            
1 49505U 21114A   26196.67602206 -.00000347  00000+0  00000+0 0  9998
2 49505   0.0303 233.4649 0000658  18.1161  55.4670  1.00268025 17109
STPSAT-6                
1 49817U 21118A   26196.60623402 -.00000055  00000+0  00000+0 0  9998
2 49817   0.3922  85.0886 0000986 242.8647  71.9516  1.00270137 16858
EXPRESS AMU-7           
1 50001U 21123A   26196.65707491 -.00000253  00000+0  00000+0 0  9997
2 50001   0.0380 262.7962 0000444  38.9156  13.3255  1.00272507 16827
EXPRESS AMU-3           
1 50002U 21123B   26195.90102253  .00000000  00000+0  00000+0 0  9999
2 50002   0.0146 349.5084 0001140   4.6336   5.8567  1.00276487  7318
TIANLIAN 2-02           
1 50005U 21124A   26196.59089395 -.00000025  00000+0  00000+0 0  9998
2 50005   0.8724  85.6455 0001627 162.1118  69.3552  1.00270655 16904
TURKSAT 5B              
1 50212U 21126A   26194.49803883  .00000142  00000+0  00000+0 0  9992
2 50212   0.0700 338.4739 0002495  12.5122 161.6814  1.00271883 16564
INMARSAT 6-F1           
1 50319U 21128A   26196.57361508 -.00000182  00000+0  00000+0 0  9991
2 50319   0.0160 356.7335 0000101 293.3584 293.5738  1.00270451 16548
SHIYAN-12 01 (SY-12 01) 
1 50321U 21129A   26196.70695661  .00000137  00000+0  00000+0 0  9999
2 50321   3.7461  79.5252 0002608 286.1640 219.2302  1.00051422 16783
SHIYAN-12 02 (SY-12 02) 
1 50322U 21129B   26196.79223145 -.00000373  00000+0  00000+0 0  9996
2 50322   3.7454  79.5238 0003081  69.6589 180.4598  1.00476956 16781
TJS-9                   
1 50574U 21135A   26196.68188870 -.00000309  00000+0  00000+0 0  9994
2 50574   0.0478 101.2777 0002162 328.6286 246.3431  1.00272172 16713
GOES 18                 
1 51850U 22021A   26195.95956966  .00000088  00000+0  00000+0 0  9998
2 51850   0.0194 126.7770 0000400  62.2107 312.2647  1.00270847  6872
ZHONGXING-6D            
1 52255U 22038A   26194.84223098 -.00000359  00000+0  00000+0 0  9998
2 52255   0.0271 235.5038 0000603 296.7652 187.7170  1.00272740 15698
NILESAT 301             
1 52817U 22061A   26196.34179016 -.00000068  00000+0  00000+0 0  9992
2 52817   0.0458 358.9818 0003508  81.0437 329.2249  1.00269469 15018
CMS-02 (GSAT-24)        
1 52903U 22067A   26195.36151797 -.00000171  00000+0  00000+0 0  9996
2 52903   0.0509 231.1001 0000860 121.8996 152.3598  1.00269800 14883
MEASAT 3D               
1 52904U 22067B   26196.66367971 -.00000252  00000+0  00000+0 0  9994
2 52904   0.0435 313.1002 0000567  65.1188 245.7187  1.00271200 14935
SES-22                  
1 52933U 22071A   26196.60086066  .00000094  00000+0  00000+0 0  9991
2 52933   0.0113  43.8976 0000829  64.6705 262.1597  1.00271757  7800
WFOV (USA 332)          
1 52940U 22073A   26196.58063510 -.00000375  00000+0  00000+0 0  9990
2 52940   3.7816  78.1679 0001476 215.3318 328.2113  1.00267015 14654
TIANLIAN 2-03           
1 53100U 22078A   26195.13344168  .00000065  00000+0  00000+0 0  9990
2 53100   0.7376  77.4695 0000926   4.6577 268.5483  1.00273706 14814
SBIRS GEO-6 (USA 336)   
1 53355U 22092A   26195.71205326 -.00000296  00000+0  00000+0 0  9991
2 53355   3.2123 317.9428 0001635 154.5282 215.4373  1.00270443 14517
EUTELSAT KONNECT VHTS   
1 53765U 22110A   26194.98928940  .00000010  00000+0  00000+0 0  9992
2 53765   0.0579  98.5802 0002655   1.4940 190.6143  1.00267750  7107
ZHONGXING-1E            
1 53813U 22112A   26196.64445419  .00000000  00000+0  00000+0 0  9997
2 53813   0.0198 241.2648 0000862  34.0771 331.5653  1.00270681 14135
SES-20                  
1 53960U 22123A   26196.60796736 -.00000111  00000+0  00000+0 0  9993
2 53960   0.0143  64.1602 0001823  29.9835 315.0773  1.00270569 13811
SES-21                  
1 53961U 22123B   26195.03409626  .00000000  00000+0  00000+0 0  9995
2 53961   0.0398  36.9714 0001181  72.5492  63.7350  1.00270261  7488
GALAXY 33 (G-33)        
1 54026U 22128A   26196.60198734  .00000069  00000+0  00000+0 0  9997
2 54026   0.0105  50.1719 0001804  70.4578 256.5328  1.00272422 14020
GALAXY 34 (G-34)        
1 54027U 22128B   26196.60285400  .00000048  00000+0  00000+0 0  9992
2 54027   0.0123  37.6319 0001495  90.8767 252.9656  1.00276371 14198
ANGOSAT 2               
1 54033U 22131A   26196.49020517  .00000125  00000+0  00000+0 0  9992
2 54033   0.0216 113.6124 0000131 139.1471 240.0448  1.00272082 13766
