OBJECT_NAME,OBJECT_ID,EPOCH,MEAN_MOTION,ECCENTRICITY,INCLINATION,RA_OF_ASC_NODE,ARG_OF_PERICENTER,MEAN_ANOMALY,EPHEMERIS_TYPE,CLASSIFICATION_TYPE,NORAD_CAT_ID,ELEMENT_SET_NO,REV_AT_EPOCH,BSTAR,MEAN_MOTION_DOT,MEAN_MOTION_DDOT
TJS-7,2021-077A,2026-07-15T14:36:28.285344,1.00269203,.00029888,0.2845,263.9752,107.0759,41.9915,0,U,49115,999,983,0,-.133E-5,0
CHINASAT 9B,2021-080A,2026-07-15T17:16:20.999136,1.00268412,.0002157,0.0578,249.0508,256.3904,148.5956,0,U,49125,999,1793,0,-.322E-5,0
SHIJIAN-21 (SJ-21),2021-094A,2026-07-15T18:22:10.014816,1.00277668,.0051634,5.1787,61.0048,168.9649,107.0876,0,U,49330,999,564,0,-.36E-5,0
SES-17,2021-095A,2026-07-14T18:13:55.754112,1.00268806,.00007691,0.0240,48.7859,69.0430,21.1585,0,U,49332,999,1813,0,-.28E-5,0
SYRACUSE 4A,2021-095B,2026-07-15T11:52:30.592992,1.00269336,.000157,0.0256,65.0342,39.4977,52.4480,0,U,49333,999,1823,0,0,0
QZS-1R (MICHIBIKI-1R),2021-096A,2026-07-14T13:49:51.633120,1.00245239,.0754906,37.5157,79.1769,272.2285,280.2291,0,U,49336,999,1728,0,-.304E-5,0
ZHONGXING-1D,2021-114A,2026-07-15T16:13:28.305984,1.00268025,.00006583,0.0303,233.4649,18.1161,55.4670,0,U,49505,999,1710,0,-.347E-5,0
STPSAT-6,2021-118A,2026-07-15T14:32:58.619328,1.00270137,.00009863,0.3922,85.0886,242.8647,71.9516,0,U,49817,999,1685,0,-.55E-6,0
EXPRESS AMU-7,2021-123A,2026-07-15T15:46:11.272224,1.00272507,.00004448,0.0380,262.7962,38.9156,13.3255,0,U,50001,999,1682,0,-.253E-5,0
EXPRESS AMU-3,2021-123B,2026-07-14T21:37:28.346592,1.00276487,.000114,0.0146,349.5084,4.6336,5.8567,0,U,50002,999,731,0,0,0
TIANLIAN 2-02,2021-124A,2026-07-15T14:10:53.237280,1.00270655,.00016276,0.8724,85.6455,162.1118,69.3552,0,U,50005,999,1690,0,-.25E-6,0
TURKSAT 5B,2021-126A,2026-07-13T11:57:10.554912,1.00271883,.00024959,0.0700,338.4739,12.5122,161.6814,0,U,50212,999,1656,0,.142E-5,0
INMARSAT 6-F1,2021-128A,2026-07-15T13:46:00.342912,1.00270451,.00001015,0.0160,356.7335,293.3584,293.5738,0,U,50319,999,1654,0,-.182E-5,0
SHIYAN-12 01 (SY-12 01),2021-129A,2026-07-15T16:58:01.051104,1.00051422,.0002608,3.7461,79.5252,286.1640,219.2302,0,U,50321,999,1678,0,.137E-5,0
SHIYAN-12 02 (SY-12 02),2021-129B,2026-07-15T19:00:48.797280,1.00476956,.0003081,3.7454,79.5238,69.6589,180.4598,0,U,50322,999,1678,0,-.373E-5,0
TJS-9,2021-135A,2026-07-15T16:21:55.183680,1.00272172,.00021624,0.0478,101.2777,328.6286,246.3431,0,U,50574,999,1671,0,-.309E-5,0
GOES 18,2022-021A,2026-07-14T23:01:46.818624,1.00270847,.00004,0.0194,126.7770,62.2107,312.2647,0,U,51850,999,687,0,.88E-6,0
ZHONGXING-6D,2022-038A,2026-07-13T20:12:48.756672,1.00272740,.00006039,0.0271,235.5038,296.7652,187.7170,0,U,52255,999,1569,0,-.359E-5,0
NILESAT 301,2022-061A,2026-07-15T08:12:10.669824,1.00269469,.00035089,0.0458,358.9818,81.0437,329.2249,0,U,52817,999,1501,0,-.68E-6,0
CMS-02 (GSAT-24),2022-067A,2026-07-14T08:40:35.152608,1.00269800,.00008603,0.0509,231.1001,121.8996,152.3598,0,U,52903,999,1488,0,-.171E-5,0
MEASAT 3D,2022-067B,2026-07-15T15:55:41.926944,1.00271200,.00005674,0.0435,313.1002,65.1188,245.7187,0,U,52904,999,1493,0,-.252E-5,0
SES-22,2022-071A,2026-07-15T14:25:14.361024,1.00271757,.00008298,0.0113,43.8976,64.6705,262.1597,0,U,52933,999,780,0,.94E-6,0
WFOV (USA 332),2022-073A,2026-07-15T13:56:06.872640,1.00267015,.00014766,3.7816,78.1679,215.3318,328.2113,0,U,52940,999,1465,0,-.375E-5,0
TIANLIAN 2-03,2022-078A,2026-07-14T03:12:09.361152,1.00273706,.00009262,0.7376,77.4695,4.6577,268.5483,0,U,53100,999,1481,0,.65E-6,0
SBIRS GEO-6 (USA 336),2022-092A,2026-07-14T17:05:21.401664,1.00270443,.00016359,3.2123,317.9428,154.5282,215.4373,0,U,53355,999,1451,0,-.296E-5,0
EUTELSAT KONNECT VHTS,2022-110A,2026-07-13T23:44:34.604160,1.00267750,.00026557,0.0579,98.5802,1.4940,190.6143,0,U,53765,999,710,0,.1E-6,0
ZHONGXING-1E,2022-112A,2026-07-15T15:28:00.842016,1.00270681,.00008628,0.0198,241.2648,34.0771,331.5653,0,U,53813,999,1413,0,0,0
SES-20,2022-123A,2026-07-15T14:35:28.379904,1.00270569,.0001823,0.0143,64.1602,29.9835,315.0773,0,U,53960,999,1381,0,-.111E-5,0
SES-21,2022-123B,2026-07-14T00:49:05.916864,1.00270261,.0001181,0.0398,36.9714,72.5492,63.7350,0,U,53961,999,748,0,0,0
GALAXY 33 (G-33),2022-128A,2026-07-15T14:26:51.706176,1.00272422,.00018045,0.0105,50.1719,70.4578,256.5328,0,U,54026,999,1402,0,.69E-6,0
GALAXY 34 (G-34),2022-128B,2026-07-15T14:28:06.585600,1.00276371,.00014957,0.0123,37.6319,90.8767,252.9656,0,U,54027,999,1419,0,.48E-6,0
ANGOSAT 2,2022-131A,2026-07-15T11:45:53.726688,1.00272082,.00001316,0.0216,113.6124,139.1471,240.0448,0,U,54033,999,1376,0,.125E-5,0
